[{"OBJECT_NAME":"ZHONGXING-2C","OBJECT_ID":"2015-063A","EPOCH":"2026-03-28T21:50:38.836608","MEAN_MOTION":1.00269886,"ECCENTRICITY":0.0006821,"INCLINATION":0.0685,"RA_OF_ASC_NODE":104.2431,"ARG_OF_PERICENTER":113.8787,"MEAN_ANOMALY":39.2676,"EPHEMERIS_TYPE":0,"CLASSIFICATION_TYPE":"U","NORAD_CAT_ID":41021,"ELEMENT_SET_NO":999,"REV_AT_EPOCH":3817,"BSTAR":0,"MEAN_MOTION_DOT":-3.43e-6,"MEAN_MOTION_DDOT":0},{"OBJECT_NAME":"GSAT-15","OBJECT_ID":"2015-065A","EPOCH":"2026-03-28T20:21:48.502656","MEAN_MOTION":1.00271797,"ECCENTRICITY":0.0002129,"INCLINATION":0.0256,"RA_OF_ASC_NODE":257.3689,"ARG_OF_PERICENTER":138.7672,"MEAN_ANOMALY":189.0672,"EPHEMERIS_TYPE":0,"CLASSIFICATION_TYPE":"U","NORAD_CAT_ID":41028,"ELEMENT_SET_NO":999,"REV_AT_EPOCH":3799,"BSTAR":0,"MEAN_MOTION_DOT":-2.77e-6,"MEAN_MOTION_DDOT":0},{"OBJECT_NAME":"BADR-7 (ARABSAT-6B)","OBJECT_ID":"2015-065B","EPOCH":"2026-03-28T20:02:33.120384","MEAN_MOTION":1.00269986,"ECCENTRICITY":0.0003085,"INCLINATION":0.0294,"RA_OF_ASC_NODE":221.2279,"ARG_OF_PERICENTER":33.5738,"MEAN_ANOMALY":258.065,"EPHEMERIS_TYPE":0,"CLASSIFICATION_TYPE":"U","NORAD_CAT_ID":41029,"ELEMENT_SET_NO":999,"REV_AT_EPOCH":3796,"BSTAR":0,"MEAN_MOTION_DOT":1.25e-6,"MEAN_MOTION_DDOT":0},{"OBJECT_NAME":"LAOSAT 1","OBJECT_ID":"2015-067A","EPOCH":"2026-03-28T18:49:04.603584","MEAN_MOTION":1.0026771,"ECCENTRICITY":0.0001797,"INCLINATION":0.0422,"RA_OF_ASC_NODE":340.2095,"ARG_OF_PERICENTER":347.7282,"MEAN_ANOMALY":268.98,"EPHEMERIS_TYPE":0,"CLASSIFICATION_TYPE":"U","NORAD_CAT_ID":41034,"ELEMENT_SET_NO":999,"REV_AT_EPOCH":3805,"BSTAR":0,"MEAN_MOTION_DOT":-3.63e-6,"MEAN_MOTION_DDOT":0},{"OBJECT_NAME":"TELSTAR 12V","OBJECT_ID":"2015-068A","EPOCH":"2026-03-28T20:04:38.592192","MEAN_MOTION":1.0027155,"ECCENTRICITY":0.0002549,"INCLINATION":0.0185,"RA_OF_ASC_NODE":152.9845,"ARG_OF_PERICENTER":211.6167,"MEAN_ANOMALY":107.7949,"EPHEMERIS_TYPE":0,"CLASSIFICATION_TYPE":"U","NORAD_CAT_ID":41036,"ELEMENT_SET_NO":999,"REV_AT_EPOCH":3782,"BSTAR":0,"MEAN_MOTION_DOT":-1.39e-6,"MEAN_MOTION_DDOT":0},{"OBJECT_NAME":"ELEKTRO-L 2","OBJECT_ID":"2015-074A","EPOCH":"2026-03-28T18:08:23.507232","MEAN_MOTION":1.00271736,"ECCENTRICITY":0.0002867,"INCLINATION":6.4928,"RA_OF_ASC_NODE":71.4977,"ARG_OF_PERICENTER":245.3679,"MEAN_ANOMALY":126.9051,"EPHEMERIS_TYPE":0,"CLASSIFICATION_TYPE":"U","NORAD_CAT_ID":41105,"ELEMENT_SET_NO":999,"REV_AT_EPOCH":3770,"BSTAR":0,"MEAN_MOTION_DOT":-1.32e-6,"MEAN_MOTION_DDOT":0},{"OBJECT_NAME":"COSMOS 2513","OBJECT_ID":"2015-075A","EPOCH":"2026-03-27T16:55:10.581312","MEAN_MOTION":1.00270042,"ECCENTRICITY":0.00023684,"INCLINATION":0.0526,"RA_OF_ASC_NODE":102.0223,"ARG_OF_PERICENTER":270.6744,"MEAN_ANOMALY":146.4683,"EPHEMERIS_TYPE":0,"CLASSIFICATION_TYPE":"U","NORAD_CAT_ID":41121,"ELEMENT_SET_NO":999,"REV_AT_EPOCH":3773,"BSTAR":0,"MEAN_MOTION_DOT":-1.57e-6,"MEAN_MOTION_DDOT":0},{"OBJECT_NAME":"EXPRESS-AMU1","OBJECT_ID":"2015-082A","EPOCH":"2026-03-28T20:05:25.344096","MEAN_MOTION":1.00268071,"ECCENTRICITY":0.0003281,"INCLINATION":0.024,"RA_OF_ASC_NODE":189.2404,"ARG_OF_PERICENTER":160.861,"MEAN_ANOMALY":173.6116,"EPHEMERIS_TYPE":0,"CLASSIFICATION_TYPE":"U","NORAD_CAT_ID":41191,"ELEMENT_SET_NO":999,"REV_AT_EPOCH":3746,"BSTAR":0,"MEAN_MOTION_DOT":0,"MEAN_MOTION_DDOT":0},{"OBJECT_NAME":"GAOFEN-4","OBJECT_ID":"2015-083A","EPOCH":"2026-03-28T21:50:38.836608","MEAN_MOTION":1.00270567,"ECCENTRICITY":0.0006081,"INCLINATION":0.3746,"RA_OF_ASC_NODE":82.9064,"ARG_OF_PERICENTER":88.8077,"MEAN_ANOMALY":87.9495,"EPHEMERIS_TYPE":0,"CLASSIFICATION_TYPE":"U","NORAD_CAT_ID":41194,"ELEMENT_SET_NO":999,"REV_AT_EPOCH":3772,"BSTAR":0,"MEAN_MOTION_DOT":-3.54e-6,"MEAN_MOTION_DDOT":0},{"OBJECT_NAME":"BELINTERSAT-1","OBJECT_ID":"2016-001A","EPOCH":"2026-03-28T20:09:47.424672","MEAN_MOTION":1.00273158,"ECCENTRICITY":0.0001452,"INCLINATION":0.0284,"RA_OF_ASC_NODE":72.4447,"ARG_OF_PERICENTER":292.6696,"MEAN_ANOMALY":175.0555,"EPHEMERIS_TYPE":0,"CLASSIFICATION_TYPE":"U","NORAD_CAT_ID":41238,"ELEMENT_SET_NO":999,"REV_AT_EPOCH":3743,"BSTAR":0,"MEAN_MOTION_DOT":8.7e-7,"MEAN_MOTION_DDOT":0},{"OBJECT_NAME":"IRNSS-1E","OBJECT_ID":"2016-003A","EPOCH":"2026-03-28T20:26:55.512096","MEAN_MOTION":1.00274691,"ECCENTRICITY":0.00171,"INCLINATION":33.0629,"RA_OF_ASC_NODE":60.9056,"ARG_OF_PERICENTER":186.6338,"MEAN_ANOMALY":357.2752,"EPHEMERIS_TYPE":0,"CLASSIFICATION_TYPE":"U","NORAD_CAT_ID":41241,"ELEMENT_SET_NO":999,"REV_AT_EPOCH":3727,"BSTAR":0,"MEAN_MOTION_DOT":-2.93e-6,"MEAN_MOTION_DDOT":0},{"OBJECT_NAME":"EUTELSAT 9B","OBJECT_ID":"2016-005A","EPOCH":"2026-03-28T19:57:41.088384","MEAN_MOTION":1.00272736,"ECCENTRICITY":0.0004142,"INCLINATION":0.0607,"RA_OF_ASC_NODE":66.3691,"ARG_OF_PERICENTER":272.6709,"MEAN_ANOMALY":155.5974,"EPHEMERIS_TYPE":0,"CLASSIFICATION_TYPE":"U","NORAD_CAT_ID":41310,"ELEMENT_SET_NO":999,"REV_AT_EPOCH":3731,"BSTAR":0,"MEAN_MOTION_DOT":4.2e-7,"MEAN_MOTION_DDOT":0},{"OBJECT_NAME":"SES-9","OBJECT_ID":"2016-013A","EPOCH":"2026-03-28T13:06:38.707776","MEAN_MOTION":1.00271147,"ECCENTRICITY":0.0001737,"INCLINATION":0.018,"RA_OF_ASC_NODE":241.3093,"ARG_OF_PERICENTER":159.2249,"MEAN_ANOMALY":90.3684,"EPHEMERIS_TYPE":0,"CLASSIFICATION_TYPE":"U","NORAD_CAT_ID":41380,"ELEMENT_SET_NO":999,"REV_AT_EPOCH":3663,"BSTAR":0,"MEAN_MOTION_DOT":-3.65e-6,"MEAN_MOTION_DDOT":0},{"OBJECT_NAME":"EUTELSAT 65 WEST A","OBJECT_ID":"2016-014A","EPOCH":"2026-03-28T19:36:30.768192","MEAN_MOTION":1.0027335,"ECCENTRICITY":0.0002286,"INCLINATION":0.0747,"RA_OF_ASC_NODE":313.7755,"ARG_OF_PERICENTER":41.7265,"MEAN_ANOMALY":59.638,"EPHEMERIS_TYPE":0,"CLASSIFICATION_TYPE":"U","NORAD_CAT_ID":41382,"ELEMENT_SET_NO":999,"REV_AT_EPOCH":3671,"BSTAR":0,"MEAN_MOTION_DOT":-2.96e-6,"MEAN_MOTION_DDOT":0},{"OBJECT_NAME":"IRNSS-1F","OBJECT_ID":"2016-015A","EPOCH":"2026-03-28T18:21:37.238112","MEAN_MOTION":1.00271387,"ECCENTRICITY":0.001812,"INCLINATION":5.1456,"RA_OF_ASC_NODE":98.6598,"ARG_OF_PERICENTER":187.6736,"MEAN_ANOMALY":207.6694,"EPHEMERIS_TYPE":0,"CLASSIFICATION_TYPE":"U","NORAD_CAT_ID":41384,"ELEMENT_SET_NO":999,"REV_AT_EPOCH":3686,"BSTAR":0,"MEAN_MOTION_DOT":1.42e-6,"MEAN_MOTION_DDOT":0},{"OBJECT_NAME":"BEIDOU-2 IGSO-6","OBJECT_ID":"2016-021A","EPOCH":"2026-03-24T21:08:57.365664","MEAN_MOTION":1.00273949,"ECCENTRICITY":0.00588989,"INCLINATION":60.1156,"RA_OF_ASC_NODE":38.8764,"ARG_OF_PERICENTER":233.5118,"MEAN_ANOMALY":322.9213,"EPHEMERIS_TYPE":0,"CLASSIFICATION_TYPE":"U","NORAD_CAT_ID":41434,"ELEMENT_SET_NO":999,"REV_AT_EPOCH":3663,"BSTAR":0,"MEAN_MOTION_DOT":-1.54e-6,"MEAN_MOTION_DDOT":0},{"OBJECT_NAME":"IRNSS-1G","OBJECT_ID":"2016-027A","EPOCH":"2026-03-28T20:32:02.520672","MEAN_MOTION":1.00273816,"ECCENTRICITY":0.000569,"INCLINATION":4.9964,"RA_OF_ASC_NODE":99.3918,"ARG_OF_PERICENTER":329.9688,"MEAN_ANOMALY":194.4326,"EPHEMERIS_TYPE":0,"CLASSIFICATION_TYPE":"U","NORAD_CAT_ID":41469,"ELEMENT_SET_NO":999,"REV_AT_EPOCH":3637,"BSTAR":0,"MEAN_MOTION_DOT":-3.5e-6,"MEAN_MOTION_DDOT":0}]
