ZHONGXING-2C            
1 41021U 15063A   26087.91017172 -.00000343  00000+0  00000+0 0  9993
2 41021   0.0685 104.2431 0006821 113.8787  39.2676  1.00269886 38178
GSAT-15                 
1 41028U 15065A   26087.84847804 -.00000277  00000+0  00000+0 0  9993
2 41028   0.0256 257.3689 0002129 138.7672 189.0672  1.00271797 37993
BADR-7 (ARABSAT-6B)     
1 41029U 15065B   26087.83510556  .00000125  00000+0  00000+0 0  9995
2 41029   0.0294 221.2279 0003085  33.5738 258.0650  1.00269986 37965
LAOSAT 1                
1 41034U 15067A   26087.78408106 -.00000363  00000+0  00000+0 0  9999
2 41034   0.0422 340.2095 0001797 347.7282 268.9800  1.00267710 38055
TELSTAR 12V             
1 41036U 15068A   26087.83655778 -.00000139  00000+0  00000+0 0  9998
2 41036   0.0185 152.9845 0002549 211.6167 107.7949  1.00271550 37826
ELEKTRO-L 2             
1 41105U 15074A   26087.75582763 -.00000132  00000+0  00000+0 0  9999
2 41105   6.4928  71.4977 0002867 245.3679 126.9051  1.00271736 37704
COSMOS 2513             
1 41121U 15075A   26086.70498358 -.00000157  00000+0  00000+0 0  9995
2 41121   0.0526 102.0223 0002368 270.6744 146.4683  1.00270042 37731
EXPRESS-AMU1            
1 41191U 15082A   26087.83709889  .00000000  00000+0  00000+0 0  9995
2 41191   0.0240 189.2404 0003281 160.8610 173.6116  1.00268071 37468
GAOFEN-4                
1 41194U 15083A   26087.91017172 -.00000354  00000+0  00000+0 0  9998
2 41194   0.3746  82.9064 0006081  88.8077  87.9495  1.00270567 37722
BELINTERSAT-1           
1 41238U 16001A   26087.84013223  .00000087  00000+0  00000+0 0  9995
2 41238   0.0284  72.4447 0001452 292.6696 175.0555  1.00273158 37436
IRNSS-1E                
1 41241U 16003A   26087.85203139 -.00000293  00000+0  00000+0 0  9999
2 41241  33.0629  60.9056 0017100 186.6338 357.2752  1.00274691 37277
EUTELSAT 9B             
1 41310U 16005A   26087.83172556  .00000042  00000+0  00000+0 0  9995
2 41310   0.0607  66.3691 0004142 272.6709 155.5974  1.00272736 37317
SES-9                   
1 41380U 16013A   26087.54628134 -.00000365  00000+0  00000+0 0  9996
2 41380   0.0180 241.3093 0001737 159.2249  90.3684  1.00271147 36630
EUTELSAT 65 WEST A      
1 41382U 16014A   26087.81702278 -.00000296  00000+0  00000+0 0  9994
2 41382   0.0747 313.7755 0002286  41.7265  59.6380  1.00273350 36711
IRNSS-1F                
1 41384U 16015A   26087.76501433  .00000142  00000+0  00000+0 0  9990
2 41384   5.1456  98.6598 0018120 187.6736 207.6694  1.00271387 36864
BEIDOU-2 IGSO-6         
1 41434U 16021A   26083.88121951 -.00000154  00000+0  00000+0 0  9999
2 41434  60.1156  38.8764 0058898 233.5118 322.9213  1.00273949 36639
IRNSS-1G                
1 41469U 16027A   26087.85558473 -.00000350  00000+0  00000+0 0  9995
2 41469   4.9964  99.3918 0005690 329.9688 194.4326  1.00273816 36378
